HERMES-3                
1 63835U 25052BR  26068.93751242  .00020316  00000+0  69958-3 0  9995
2 63835  97.3987 324.6131 0007993 112.9583 247.2502 15.30039785 54863
STARLINK-34782          
1 65358U 25190H   26068.58354775  .00033975  00000+0  11545-2 0  9994
2 65358  53.1587 168.3432 0001372  90.4661 269.6497 15.30185807 29747
